[{"OBJECT_NAME":"STARLINK-5068","OBJECT_ID":"2023-014AJ","EPOCH":"2026-03-09T10:43:04.439424","MEAN_MOTION":14.98327616,"ECCENTRICITY":0.00033795,"INCLINATION":69.9991,"RA_OF_ASC_NODE":85.157,"ARG_OF_PERICENTER":269.503,"MEAN_ANOMALY":90.5742,"EPHEMERIS_TYPE":0,"CLASSIFICATION_TYPE":"U","NORAD_CAT_ID":55423,"ELEMENT_SET_NO":999,"REV_AT_EPOCH":17152,"BSTAR":-3.3395787e-5,"MEAN_MOTION_DOT":-4.91e-6,"MEAN_MOTION_DDOT":0},{"OBJECT_NAME":"ICEYE-X41","OBJECT_ID":"2025-009CV","EPOCH":"2026-03-09T16:55:08.694336","MEAN_MOTION":14.96071666,"ECCENTRICITY":0.00019001,"INCLINATION":97.711,"RA_OF_ASC_NODE":149.7146,"ARG_OF_PERICENTER":53.5813,"MEAN_ANOMALY":306.5584,"EPHEMERIS_TYPE":0,"CLASSIFICATION_TYPE":"U","NORAD_CAT_ID":62700,"ELEMENT_SET_NO":999,"REV_AT_EPOCH":6253,"BSTAR":0.00045867277,"MEAN_MOTION_DOT":5.098e-5,"MEAN_MOTION_DDOT":0}]
